H-2A R/B                
1 28932U 06002B   26086.88500762  .00011468  00000+0  56681-3 0  9998
2 28932  98.2443 235.4828 0052391 178.8067 181.3298 15.16812401 97192
RESURS-DK 1             
1 29228U 06021A   26086.71881714  .00002192  00000+0  13048-3 0  9993
2 29228  69.9337 190.3856 0001089  58.0964 302.0308 15.12856516 90256
CZ-4B R/B               
1 29507U 06046C   26086.68276461  .00004355  00000+0  22048-3 0  9996
2 29507  97.5561 131.5422 0032628 202.6193 157.3604 15.17079136 62778
CZ-2C R/B               
1 31114U 07010B   26086.90205539  .00000129  00000+0  78554-4 0  9997
2 31114  98.3997 199.2697 0058039 240.6431 118.8942 14.20252563982300
COSMO-SKYMED 1          
1 31598U 07023A   26086.91704067  .00003088  00000+0  27590-3 0  9998
2 31598  97.8878 278.0977 0000935  97.6294 262.5034 14.96662604 17632
COSMOS 2428             
1 31792U 07029A   26086.65823659 -.00000050  00000+0 -11861-5 0  9994
2 31792  70.9436 165.6314 0009691 258.6347 101.3686 14.12948202966637
SL-16 R/B               
1 31793U 07029B   26086.89682831  .00000062  00000+0  56775-4 0  9999
2 31793  70.9749 134.1136 0002668 277.7529 253.9641 14.14843301967945
KORONAS-FOTON           
1 33504U 09003A   26086.91612540  .00013841  00000+0  30415-3 0  9999
2 33504  82.4275 256.9190 0011782  90.7685 269.4912 15.43795789948553
CZ-2C R/B               
1 37731U 11030B   26086.84941493  .00001467  00000+0  19097-3 0  9996
2 37731  97.8574  43.7534 0051146 292.0302 121.5263 14.81284285792780
H-2A R/B                
1 38341U 12025E   26086.86386644  .00003610  00000+0  32806-3 0  9997
2 38341  98.4761  55.3701 0042712 252.7863 106.8678 14.95292979750933
SHIJIAN-16 (SJ-16)      
1 39358U 13057A   26086.93018120  .00001901  00000+0  18794-3 0  9992
2 39358  74.9724 150.5589 0015254  65.2669 295.0105 14.92417934674224
SL-4 R/B                
1 39679U 14021B   26086.73990852  .00018474  00000+0  39896-3 0  9998
2 39679  51.6043 249.1796 0095735 168.7371 191.5787 15.39787110659050
