CCSDS_OMM_VERS = 2.0
CREATION_DATE  = 
ORIGINATOR     = 

OBJECT_NAME    = H-2A R/B
OBJECT_ID      = 2006-002B
CENTER_NAME    = EARTH
REF_FRAME      = TEME
TIME_SYSTEM    = UTC
MEAN_ELEMENT_THEORY = SGP/SGP4

EPOCH          = 2026-03-27T21:14:24.658368
MEAN_MOTION    = 15.16812401
ECCENTRICITY   = .00523911
INCLINATION    = 98.2443
RA_OF_ASC_NODE = 235.4828
ARG_OF_PERICENTER = 178.8067
MEAN_ANOMALY   = 181.3298

EPHEMERIS_TYPE = 0
CLASSIFICATION_TYPE = U
NORAD_CAT_ID   = 28932
ELEMENT_SET_NO = 999
REV_AT_EPOCH   = 9719
BSTAR          = .56680704E-3
MEAN_MOTION_DOT = .11468E-3
MEAN_MOTION_DDOT = 0

CCSDS_OMM_VERS = 2.0
CREATION_DATE  = 
ORIGINATOR     = 

OBJECT_NAME    = RESURS-DK 1
OBJECT_ID      = 2006-021A
CENTER_NAME    = EARTH
REF_FRAME      = TEME
TIME_SYSTEM    = UTC
MEAN_ELEMENT_THEORY = SGP/SGP4

EPOCH          = 2026-03-27T17:15:05.800896
MEAN_MOTION    = 15.12856516
ECCENTRICITY   = .00010896
INCLINATION    = 69.9337
RA_OF_ASC_NODE = 190.3856
ARG_OF_PERICENTER = 58.0964
MEAN_ANOMALY   = 302.0308

EPHEMERIS_TYPE = 0
CLASSIFICATION_TYPE = U
NORAD_CAT_ID   = 29228
ELEMENT_SET_NO = 999
REV_AT_EPOCH   = 9025
BSTAR          = .1304752E-3
MEAN_MOTION_DOT = .2192E-4
MEAN_MOTION_DDOT = 0

CCSDS_OMM_VERS = 2.0
CREATION_DATE  = 
ORIGINATOR     = 

OBJECT_NAME    = CZ-4B R/B
OBJECT_ID      = 2006-046C
CENTER_NAME    = EARTH
REF_FRAME      = TEME
TIME_SYSTEM    = UTC
MEAN_ELEMENT_THEORY = SGP/SGP4

EPOCH          = 2026-03-27T16:23:10.862304
MEAN_MOTION    = 15.17079136
ECCENTRICITY   = .00326286
INCLINATION    = 97.5561
RA_OF_ASC_NODE = 131.5422
ARG_OF_PERICENTER = 202.6193
MEAN_ANOMALY   = 157.3604

EPHEMERIS_TYPE = 0
CLASSIFICATION_TYPE = U
NORAD_CAT_ID   = 29507
ELEMENT_SET_NO = 999
REV_AT_EPOCH   = 6277
BSTAR          = .22048499E-3
MEAN_MOTION_DOT = .4355E-4
MEAN_MOTION_DDOT = 0

CCSDS_OMM_VERS = 2.0
CREATION_DATE  = 
ORIGINATOR     = 

OBJECT_NAME    = CZ-2C R/B
OBJECT_ID      = 2007-010B
CENTER_NAME    = EARTH
REF_FRAME      = TEME
TIME_SYSTEM    = UTC
MEAN_ELEMENT_THEORY = SGP/SGP4

EPOCH          = 2026-03-27T21:38:57.585696
MEAN_MOTION    = 14.20252563
ECCENTRICITY   = .0058039
INCLINATION    = 98.3997
RA_OF_ASC_NODE = 199.2697
ARG_OF_PERICENTER = 240.6431
MEAN_ANOMALY   = 118.8942

EPHEMERIS_TYPE = 0
CLASSIFICATION_TYPE = U
NORAD_CAT_ID   = 31114
ELEMENT_SET_NO = 999
REV_AT_EPOCH   = 98230
BSTAR          = .78554031E-4
MEAN_MOTION_DOT = .129E-5
MEAN_MOTION_DDOT = 0

CCSDS_OMM_VERS = 2.0
CREATION_DATE  = 
ORIGINATOR     = 

OBJECT_NAME    = COSMO-SKYMED 1
OBJECT_ID      = 2007-023A
CENTER_NAME    = EARTH
REF_FRAME      = TEME
TIME_SYSTEM    = UTC
MEAN_ELEMENT_THEORY = SGP/SGP4

EPOCH          = 2026-03-27T22:00:32.313888
MEAN_MOTION    = 14.96662604
ECCENTRICITY   = .00009354
INCLINATION    = 97.8878
RA_OF_ASC_NODE = 278.0977
ARG_OF_PERICENTER = 97.6294
MEAN_ANOMALY   = 262.5034

EPHEMERIS_TYPE = 0
CLASSIFICATION_TYPE = U
NORAD_CAT_ID   = 31598
ELEMENT_SET_NO = 999
REV_AT_EPOCH   = 1763
BSTAR          = .27590475E-3
MEAN_MOTION_DOT = .3088E-4
MEAN_MOTION_DDOT = 0

CCSDS_OMM_VERS = 2.0
CREATION_DATE  = 
ORIGINATOR     = 

OBJECT_NAME    = COSMOS 2428
OBJECT_ID      = 2007-029A
CENTER_NAME    = EARTH
REF_FRAME      = TEME
TIME_SYSTEM    = UTC
MEAN_ELEMENT_THEORY = SGP/SGP4

EPOCH          = 2026-03-27T15:47:51.641376
MEAN_MOTION    = 14.12948202
ECCENTRICITY   = .00096912
INCLINATION    = 70.9436
RA_OF_ASC_NODE = 165.6314
ARG_OF_PERICENTER = 258.6347
MEAN_ANOMALY   = 101.3686

EPHEMERIS_TYPE = 0
CLASSIFICATION_TYPE = U
NORAD_CAT_ID   = 31792
ELEMENT_SET_NO = 999
REV_AT_EPOCH   = 96663
BSTAR          = -.1186121E-5
MEAN_MOTION_DOT = -.5E-6
MEAN_MOTION_DDOT = 0

CCSDS_OMM_VERS = 2.0
CREATION_DATE  = 
ORIGINATOR     = 

OBJECT_NAME    = SL-16 R/B
OBJECT_ID      = 2007-029B
CENTER_NAME    = EARTH
REF_FRAME      = TEME
TIME_SYSTEM    = UTC
MEAN_ELEMENT_THEORY = SGP/SGP4

EPOCH          = 2026-03-27T21:31:25.965984
MEAN_MOTION    = 14.14843301
ECCENTRICITY   = .00026685
INCLINATION    = 70.9749
RA_OF_ASC_NODE = 134.1136
ARG_OF_PERICENTER = 277.7529
MEAN_ANOMALY   = 253.9641

EPHEMERIS_TYPE = 0
CLASSIFICATION_TYPE = U
NORAD_CAT_ID   = 31793
ELEMENT_SET_NO = 999
REV_AT_EPOCH   = 96794
BSTAR          = .56775343E-4
MEAN_MOTION_DOT = .62E-6
MEAN_MOTION_DDOT = 0

CCSDS_OMM_VERS = 2.0
CREATION_DATE  = 
ORIGINATOR     = 

OBJECT_NAME    = KORONAS-FOTON
OBJECT_ID      = 2009-003A
CENTER_NAME    = EARTH
REF_FRAME      = TEME
TIME_SYSTEM    = UTC
MEAN_ELEMENT_THEORY = SGP/SGP4

EPOCH          = 2026-03-27T21:59:13.234560
MEAN_MOTION    = 15.43795789
ECCENTRICITY   = .00117829
INCLINATION    = 82.4275
RA_OF_ASC_NODE = 256.9190
ARG_OF_PERICENTER = 90.7685
MEAN_ANOMALY   = 269.4912

EPHEMERIS_TYPE = 0
CLASSIFICATION_TYPE = U
NORAD_CAT_ID   = 33504
ELEMENT_SET_NO = 999
REV_AT_EPOCH   = 94855
BSTAR          = .30415049E-3
MEAN_MOTION_DOT = .13841E-3
MEAN_MOTION_DDOT = 0

CCSDS_OMM_VERS = 2.0
CREATION_DATE  = 
ORIGINATOR     = 

OBJECT_NAME    = CZ-2C R/B
OBJECT_ID      = 2011-030B
CENTER_NAME    = EARTH
REF_FRAME      = TEME
TIME_SYSTEM    = UTC
MEAN_ELEMENT_THEORY = SGP/SGP4

EPOCH          = 2026-03-27T20:23:09.449952
MEAN_MOTION    = 14.81284285
ECCENTRICITY   = .0051146
INCLINATION    = 97.8574
RA_OF_ASC_NODE = 43.7534
ARG_OF_PERICENTER = 292.0302
MEAN_ANOMALY   = 121.5263

EPHEMERIS_TYPE = 0
CLASSIFICATION_TYPE = U
NORAD_CAT_ID   = 37731
ELEMENT_SET_NO = 999
REV_AT_EPOCH   = 79278
BSTAR          = .19096817E-3
MEAN_MOTION_DOT = .1467E-4
MEAN_MOTION_DDOT = 0

CCSDS_OMM_VERS = 2.0
CREATION_DATE  = 
ORIGINATOR     = 

OBJECT_NAME    = H-2A R/B
OBJECT_ID      = 2012-025E
CENTER_NAME    = EARTH
REF_FRAME      = TEME
TIME_SYSTEM    = UTC
MEAN_ELEMENT_THEORY = SGP/SGP4

EPOCH          = 2026-03-27T20:43:58.060416
MEAN_MOTION    = 14.95292979
ECCENTRICITY   = .00427124
INCLINATION    = 98.4761
RA_OF_ASC_NODE = 55.3701
ARG_OF_PERICENTER = 252.7863
MEAN_ANOMALY   = 106.8678

EPHEMERIS_TYPE = 0
CLASSIFICATION_TYPE = U
NORAD_CAT_ID   = 38341
ELEMENT_SET_NO = 999
REV_AT_EPOCH   = 75093
BSTAR          = .32806157E-3
MEAN_MOTION_DOT = .361E-4
MEAN_MOTION_DDOT = 0

CCSDS_OMM_VERS = 2.0
CREATION_DATE  = 
ORIGINATOR     = 

OBJECT_NAME    = SHIJIAN-16 (SJ-16)
OBJECT_ID      = 2013-057A
CENTER_NAME    = EARTH
REF_FRAME      = TEME
TIME_SYSTEM    = UTC
MEAN_ELEMENT_THEORY = SGP/SGP4

EPOCH          = 2026-03-27T22:19:27.655680
MEAN_MOTION    = 14.92417934
ECCENTRICITY   = .00152547
INCLINATION    = 74.9724
RA_OF_ASC_NODE = 150.5589
ARG_OF_PERICENTER = 65.2669
MEAN_ANOMALY   = 295.0105

EPHEMERIS_TYPE = 0
CLASSIFICATION_TYPE = U
NORAD_CAT_ID   = 39358
ELEMENT_SET_NO = 999
REV_AT_EPOCH   = 67422
BSTAR          = .18794422E-3
MEAN_MOTION_DOT = .1901E-4
MEAN_MOTION_DDOT = 0

CCSDS_OMM_VERS = 2.0
CREATION_DATE  = 
ORIGINATOR     = 

OBJECT_NAME    = SL-4 R/B
OBJECT_ID      = 2014-021B
CENTER_NAME    = EARTH
REF_FRAME      = TEME
TIME_SYSTEM    = UTC
MEAN_ELEMENT_THEORY = SGP/SGP4

EPOCH          = 2026-03-27T17:45:28.096128
MEAN_MOTION    = 15.39787110
ECCENTRICITY   = .00957359
INCLINATION    = 51.6043
RA_OF_ASC_NODE = 249.1796
ARG_OF_PERICENTER = 168.7371
MEAN_ANOMALY   = 191.5787

EPHEMERIS_TYPE = 0
CLASSIFICATION_TYPE = U
NORAD_CAT_ID   = 39679
ELEMENT_SET_NO = 999
REV_AT_EPOCH   = 65905
BSTAR          = .3989564E-3
MEAN_MOTION_DOT = .18474E-3
MEAN_MOTION_DDOT = 0

